SAUDISAT 5A             
1 43831U 18102A   26167.83739773  .00004802  00000+0  17795-3 0  9995
2 43831  97.3067 229.4251 0010985 130.1068 230.1136 15.28045544415622
SAUDISAT 5B             
1 43833U 18102C   26167.85630065  .00004519  00000+0  16630-3 0  9995
2 43833  97.3175 232.5127 0011666 132.2513 227.9718 15.28302267415747
GAOFEN-10R              
1 44622U 19066A   26167.88392421  .00000925  00000+0  12033-3 0  9996
2 44622  98.0497 121.4609 0006657 128.3056 231.8756 14.83060284362334
CARTOSAT-3              
1 44804U 19081A   26167.82802094  .00002673  00000+0  12969-3 0  9991
2 44804  97.4305 229.7008 0013193 149.3681 210.8327 15.19278587363410
GAOFEN-12 01            
1 44819U 19082A   26167.87695323  .00000299  00000+0  45686-4 0  9993
2 44819  97.8100 174.2646 0002283  70.7936 289.3523 14.80458262354048
CSG-1                   
1 44873U 19092A   26167.84881622  .00000313  00000+0  45887-4 0  9990
2 44873  97.8888 351.4562 0001467  89.6144 270.5237 14.82152951351421
NEMO-HD                 
1 46277U 20061F   26167.87062407  .00009427  00000+0  20461-3 0  9998
2 46277  97.1918 229.8267 0002287  81.4398 278.7110 15.44588878321933
SENTINEL-6A             
1 46984U 20086A   26167.61702784 -.00000075  00000+0 -60697-4 0  9999
2 46984  66.0394 136.2366 0007948 270.2602  89.7503 12.80929945260251
CAS500-1                
1 47932U 21022A   26167.86556093  .00005398  00000+0  25280-3 0  9990
2 47932  97.3902  63.1257 0003406 302.7050  57.3857 15.20129811290715
GAOFEN-12 02            
1 48079U 21026A   26167.88797834  .00000283  00000+0  44055-4 0  9999
2 48079  97.9921 166.0698 0003658 222.9831 137.1095 14.80295996281710
PLEIADES NEO 3          
1 48268U 21034A   26167.84795331  .00001191  00000+0  15797-3 0  9993
2 48268  97.8936 242.6195 0001381  87.5812 272.5559 14.81674478277602
PLEIADES NEO 4          
1 49070U 21073E   26167.81417609  .00000581  00000+0  80386-4 0  9993
2 49070  97.8939 242.5818 0001342  84.3428 275.7938 14.81674437261315
LANDSAT 9               
1 49260U 21088A   26167.71583063  .00000294  00000+0  75407-4 0  9996
2 49260  98.2281 237.8990 0001345  85.9344 274.2008 14.57096875250931
CSG-2                   
1 51444U 22008A   26167.81504270  .00000856  00000+0  11412-3 0  9999
2 51444  97.8879 351.4181 0001494  85.7711 274.3673 14.82158451236538
GAOFEN-12 03            
1 52912U 22069A   26167.85023299  .00000915  00000+0  12752-3 0  9992
2 52912  97.8285  55.7294 0002038 103.3232 256.8208 14.80034601214565
SWOT                    
1 54754U 22173A   26167.84534493  .00000017  00000+0  13394-4 0  9993
2 54754  77.6106  35.7717 0000236  88.4678 271.6500 14.00169629179103
GAOFEN-12 04            
1 57654U 23123A   26167.86695559  .00000823  00000+0  11505-3 0  9990
2 57654  97.9122  85.8894 0001792  83.2104 276.9312 14.80228324152583
PARS 1                  
1 59065U 24039Q   26167.86136211  .00009446  00000+0  19697-3 0  9990
2 59065  97.4821 148.7708 0011483 112.5399 247.7067 15.45718790128595
RESURS-P 4              
1 59371U 24061A   26167.87129634  .00002547  00000+0  84560-4 0  9994
2 59371  97.2754 115.7756 0002144 127.2782 232.8656 15.32129791123719
LEGION 1                
1 59625U 24081A   26167.83114984  .00003309  00000+0  17234-3 0  9996
2 59625  97.5020 245.6918 0009553  19.2715 340.8878 15.16665247117486
LEGION 2                
1 59626U 24081B   26167.79514598  .00002864  00000+0  14970-3 0  9996
2 59626  97.5020 245.7537 0010806 345.1697  14.9217 15.16643740117488
ALOS-4 (DAICHI-4)       
1 60182U 24123A   26166.87348892  .00001272  00000+0  17718-3 0  9997
2 60182  97.9245 264.0657 0001588  97.6943 262.4449 14.79475009105682
LEGION 3                
1 60452U 24146A   26167.73558436  .00002783  00000+0  15579-3 0  9996
2 60452  45.0020  32.9773 0007611 167.6888 192.4178 15.16034248101952
LEGION 4                
1 60453U 24146B   26167.80456634  .00003614  00000+0  19802-3 0  9999
2 60453  45.0004 124.5171 0013796 306.4790  53.4816 15.16027869100811
SENTINEL-2C             
1 60989U 24157A   26167.75296515  .00000095  00000+0  52806-4 0  9991
2 60989  98.5692 242.5411 0001029  81.4209 278.7090 14.30817718 92923
IONOSFERA-M 1           
1 61735U 24199A   26167.84216233  .00000057  00000+0  44955-4 0  9990
2 61735  98.7173  41.0180 0001946 110.8223 249.3163 14.22754319127657
IONOSFERA-M 2           
1 61736U 24199B   26167.87645830  .00000056  00000+0  44548-4 0  9990
2 61736  98.7172  40.9626 0001061  39.5843 320.5412 14.22757517130783
PRSC-EO1                
1 62725U 25012A   26167.86200123  .00005503  00000+0  27697-3 0  9992
2 62725  97.4226 240.3283 0004752 254.0227 106.0483 15.17606458 78141
BIOMASS                 
1 63772U 25090A   26167.76076953  .00000858  00000+0  15983-3 0  9995
2 63772  98.0741 355.0840 0001363  93.2091 266.9269 14.67537382 60628
GOSAT-GW (IBUKI GW)     
1 64694U 25141A   26167.84924167  .00000471  00000+0  91533-4 0  9991
2 64694  98.0568 105.1718 0001447  84.8579 275.2790 14.67555016 51791
IONOSFERA-M 3           
1 64876U 25155A   26167.82348799  .00000028  00000+0  32524-4 0  9990
2 64876  98.6024 129.7376 0001003 157.6768 202.4454 14.21486388 46355
