OBJECT_NAME,OBJECT_ID,EPOCH,MEAN_MOTION,ECCENTRICITY,INCLINATION,RA_OF_ASC_NODE,ARG_OF_PERICENTER,MEAN_ANOMALY,EPHEMERIS_TYPE,CLASSIFICATION_TYPE,NORAD_CAT_ID,ELEMENT_SET_NO,REV_AT_EPOCH,BSTAR,MEAN_MOTION_DOT,MEAN_MOTION_DDOT
SAUDISAT 5A,2018-102A,2026-06-16T20:05:51.163872,15.28045544,.0010985,97.3067,229.4251,130.1068,230.1136,0,U,43831,999,41562,.17795E-3,.4802E-4,0
SAUDISAT 5B,2018-102C,2026-06-16T20:33:04.376160,15.28302267,.0011666,97.3175,232.5127,132.2513,227.9718,0,U,43833,999,41574,.1663E-3,.4519E-4,0
GAOFEN-10R,2019-066A,2026-06-16T21:12:51.051744,14.83060284,.0006657,98.0497,121.4609,128.3056,231.8756,0,U,44622,999,36233,.12033E-3,.925E-5,0
CARTOSAT-3,2019-081A,2026-06-16T19:52:21.009216,15.19278587,.0013193,97.4305,229.7008,149.3681,210.8327,0,U,44804,999,36341,.12969E-3,.2673E-4,0
GAOFEN-12 01,2019-082A,2026-06-16T21:02:48.759072,14.80458262,.0002283,97.8100,174.2646,70.7936,289.3523,0,U,44819,999,35404,.45686E-4,.299E-5,0
CSG-1,2019-092A,2026-06-16T20:22:17.721408,14.82152951,.0001467,97.8888,351.4562,89.6144,270.5237,0,U,44873,999,35142,.45887E-4,.313E-5,0
NEMO-HD,2020-061F,2026-06-16T20:53:41.919648,15.44588878,.0002287,97.1918,229.8267,81.4398,278.7110,0,U,46277,999,32193,.20461E-3,.9427E-4,0
SENTINEL-6A,2020-086A,2026-06-16T14:48:31.205376,12.80929945,.0007948,66.0394,136.2366,270.2602,89.7503,0,U,46984,999,26025,-.60697E-4,-.75E-6,0
CAS500-1,2021-022A,2026-06-16T20:46:24.464352,15.20129811,.0003406,97.3902,63.1257,302.7050,57.3857,0,U,47932,999,29071,.2528E-3,.5398E-4,0
GAOFEN-12 02,2021-026A,2026-06-16T21:18:41.328576,14.80295996,.0003658,97.9921,166.0698,222.9831,137.1095,0,U,48079,999,28171,.44055E-4,.283E-5,0
PLEIADES NEO 3,2021-034A,2026-06-16T20:21:03.165984,14.81674478,.0001381,97.8936,242.6195,87.5812,272.5559,0,U,48268,999,27760,.15797E-3,.1191E-4,0
PLEIADES NEO 4,2021-073E,2026-06-16T19:32:24.814176,14.81674437,.0001342,97.8939,242.5818,84.3428,275.7938,0,U,49070,999,26131,.80386E-4,.581E-5,0
LANDSAT 9,2021-088A,2026-06-16T17:10:47.766432,14.57096875,.0001345,98.2281,237.8990,85.9344,274.2008,0,U,49260,999,25093,.75407E-4,.294E-5,0
CSG-2,2022-008A,2026-06-16T19:33:39.689280,14.82158451,.0001494,97.8879,351.4181,85.7711,274.3673,0,U,51444,999,23653,.11412E-3,.856E-5,0
GAOFEN-12 03,2022-069A,2026-06-16T20:24:20.130336,14.80034601,.0002038,97.8285,55.7294,103.3232,256.8208,0,U,52912,999,21456,.12752E-3,.915E-5,0
SWOT,2022-173A,2026-06-16T20:17:17.801952,14.00169629,.0000236,77.6106,35.7717,88.4678,271.6500,0,U,54754,999,17910,.13394E-4,.17E-6,0
GAOFEN-12 04,2023-123A,2026-06-16T20:48:24.962976,14.80228324,.0001792,97.9122,85.8894,83.2104,276.9312,0,U,57654,999,15258,.11505E-3,.823E-5,0
PARS 1,2024-039Q,2026-06-16T20:40:21.686304,15.45718790,.0011483,97.4821,148.7708,112.5399,247.7067,0,U,59065,999,12859,.19697E-3,.9446E-4,0
RESURS-P 4,2024-061A,2026-06-16T20:54:40.003776,15.32129791,.0002144,97.2754,115.7756,127.2782,232.8656,0,U,59371,999,12371,.8456E-4,.2547E-4,0
LEGION 1,2024-081A,2026-06-16T19:56:51.346176,15.16665247,.0009553,97.5020,245.6918,19.2715,340.8878,0,U,59625,999,11748,.17234E-3,.3309E-4,0
LEGION 2,2024-081B,2026-06-16T19:05:00.612672,15.16643740,.0010806,97.5020,245.7537,345.1697,14.9217,0,U,59626,999,11748,.1497E-3,.2864E-4,0
ALOS-4 (DAICHI-4),2024-123A,2026-06-15T20:57:49.442688,14.79475009,.0001588,97.9245,264.0657,97.6943,262.4449,0,U,60182,999,10568,.17718E-3,.1272E-4,0
LEGION 3,2024-146A,2026-06-16T17:39:14.488704,15.16034248,.0007611,45.0020,32.9773,167.6888,192.4178,0,U,60452,999,10195,.15579E-3,.2783E-4,0
LEGION 4,2024-146B,2026-06-16T19:18:34.531776,15.16027869,.0013796,45.0004,124.5171,306.4790,53.4816,0,U,60453,999,10081,.19802E-3,.3614E-4,0
SENTINEL-2C,2024-157A,2026-06-16T18:04:16.188960,14.30817718,.0001029,98.5692,242.5411,81.4209,278.7090,0,U,60989,999,9292,.52806E-4,.95E-6,0
IONOSFERA-M 1,2024-199A,2026-06-16T20:12:42.825312,14.22754319,.0001946,98.7173,41.0180,110.8223,249.3163,0,U,61735,999,12765,.44955E-4,.57E-6,0
IONOSFERA-M 2,2024-199B,2026-06-16T21:02:05.997120,14.22757517,.0001061,98.7172,40.9626,39.5843,320.5412,0,U,61736,999,13078,.44548E-4,.56E-6,0
PRSC-EO1,2025-012A,2026-06-16T20:41:16.906272,15.17606458,.0004752,97.4226,240.3283,254.0227,106.0483,0,U,62725,999,7814,.27697E-3,.5503E-4,0
BIOMASS,2025-090A,2026-06-16T18:15:30.487392,14.67537382,.0001363,98.0741,355.0840,93.2091,266.9269,0,U,63772,999,6062,.15983E-3,.858E-5,0
GOSAT-GW (IBUKI GW),2025-141A,2026-06-16T20:22:54.480288,14.67555016,.0001447,98.0568,105.1718,84.8579,275.2790,0,U,64694,999,5179,.91533E-4,.471E-5,0
IONOSFERA-M 3,2025-155A,2026-06-16T19:45:49.362336,14.21486388,.0001003,98.6024,129.7376,157.6768,202.4454,0,U,64876,999,4635,.32524E-4,.28E-6,0
